sprout
1 39770U 14029E   22324.79410345  .00007755  00000-0  74503-3 0  9994
2 39770  97.9542  83.0486 0007449 289.4673  70.5739 14.93310177460979